      2.10          N: GNSS NAV DATA                        RINEX VERSION / TYPE
fic2rin                                 02/06/2021 00:17:34 PGM / RUN BY / DATE
                                                            END OF HEADER
25 21  2  5 20  0  0.0 7.454212754965e-05 7.730704965070e-12 0.000000000000e+00
    8.900000000000e+01 9.403125000000e+01 4.476615040414e-09 2.797820338939e+00
    4.708766937256e-06 9.780401596799e-03 7.266178727150e-06 5.153675676346e+03
    5.040000000000e+05-6.891787052155e-08 2.743418656570e+00-1.769512891769e-07
    9.624653789577e-01 2.369062500000e+02 9.373094960971e-01-7.966046103509e-09
   -2.500104139373e-12 1.000000000000e+00 2.143000000000e+03 0.000000000000e+00
    3.400000000000e+00 0.000000000000e+00 5.587935447693e-09 8.900000000000e+01
    4.968000000000e+05 4.000000000000e+00
26 21  2  5 20  0  0.0 4.061218351126e-05 5.570655048359e-12 0.000000000000e+00
    8.200000000000e+01 8.587500000000e+01 4.982707549770e-09 2.175475510727e+00
    4.561617970467e-06 5.714623141102e-03 7.102265954018e-06 5.153757303238e+03
    5.040000000000e+05-1.676380634308e-07 2.703419979082e+00 1.061707735062e-07
    9.434032945225e-01 2.349687500000e+02 2.664299453281e-01-8.324989626377e-09
   -1.392915163365e-11 1.000000000000e+00 2.143000000000e+03 0.000000000000e+00
    2.400000000000e+00 0.000000000000e+00 6.984919309616e-09 8.200000000000e+01
    4.968000000000e+05 4.000000000000e+00
17 21  2  5 20  0  0.0 3.893971443176e-04 4.774847184308e-12 0.000000000000e+00
    6.600000000000e+01-2.606250000000e+01 4.257677349352e-09 2.686732833893e-01
   -1.337379217148e-06 1.353592437226e-02 4.133209586143e-06 5.153542596817e+03
    5.040000000000e+05-2.067536115646e-07-2.432637799803e+00-2.048909664154e-08
    9.829652309845e-01 3.151562500000e+02-1.580472122562e+00-8.429636842496e-09
   -2.592965150264e-10 1.000000000000e+00 2.143000000000e+03 0.000000000000e+00
    2.400000000000e+00 0.000000000000e+00-1.117587089539e-08 6.600000000000e+01
    4.968000000000e+05 4.000000000000e+00
23 21  2  5 20  0  0.0 1.180497929454e-04 5.684341886081e-13 0.000000000000e+00
    2.020000000000e+02-2.450000000000e+01 4.345538151964e-09-2.118582091196e+00
   -1.093372702599e-06 1.072612940334e-03 8.970499038696e-06 5.153644641876e+03
    5.040000000000e+05 1.490116119385e-08-4.227131677459e-01-3.725290298462e-08
    9.632992144674e-01 2.085625000000e+02 2.419144811892e+00-7.908900866038e-09
    4.553761111000e-10 1.000000000000e+00 2.143000000000e+03 0.000000000000e+00
    2.400000000000e+00 0.000000000000e+00-8.381903171539e-09 7.140000000000e+02
    4.968000000000e+05 4.000000000000e+00
18 21  2  5 20  0  0.0 3.457996062934e-04 2.046363078989e-12 0.000000000000e+00
    1.790000000000e+02-8.187500000000e+01 4.179816963297e-09-1.716156422678e+00
   -4.310160875320e-06 1.191493473016e-03 7.620081305504e-06 5.153689441681e+03
    5.040000000000e+05-6.519258022308e-08-1.422247903363e+00 3.352761268616e-08
    9.666025873576e-01 2.375000000000e+02 3.043542276552e+00-7.919615598064e-09
    1.535778257043e-11 1.000000000000e+00 2.143000000000e+03 0.000000000000e+00
    2.400000000000e+00 0.000000000000e+00-8.381903171539e-09 4.350000000000e+02
    4.968000000000e+05 4.000000000000e+00
11 21  2  5 20  0  0.0-3.285566344857e-05 1.057287590811e-11 0.000000000000e+00
    7.600000000000e+01-6.478125000000e+01 5.418797143223e-09-2.443327716715e+00
   -3.250315785408e-06 1.535504893400e-02 5.429610610008e-06 5.154073122025e+03
    5.040000000000e+05 7.450580596924e-08-1.926988469227e+00 2.682209014893e-07
    9.140264131661e-01 2.480937500000e+02 2.077155174102e+00-8.434279893041e-09
   -2.135803250493e-10 1.000000000000e+00 2.143000000000e+03 0.000000000000e+00
    2.400000000000e+00 6.300000000000e+01-1.257285475731e-08 7.600000000000e+01
    4.968000000000e+05 4.000000000000e+00
 8 21  2  5 20  0  0.0-9.217299520969e-06-1.364242052659e-12 0.000000000000e+00
    1.120000000000e+02-1.643750000000e+01 4.525902807733e-09 3.791864058358e-01
   -9.741634130478e-07 6.153911119327e-03 3.293156623840e-06 5.153548887253e+03
    5.040000000000e+05 8.381903171539e-08-2.508961798204e+00 9.313225746155e-09
    9.683647760513e-01 3.152187500000e+02-3.633020705895e-02-8.347490563631e-09
   -2.228664261384e-10 1.000000000000e+00 2.143000000000e+03 0.000000000000e+00
    6.850000000000e+00 0.000000000000e+00 5.122274160385e-09 1.120000000000e+02
    4.968000000000e+05 4.000000000000e+00
30 21  2  5 19 59 44.0-3.802394494414e-04-5.911715561524e-12 0.000000000000e+00
    2.000000000000e+00 4.959375000000e+01 5.042710049115e-09-2.517409521057e+00
    2.399086952209e-06 4.816220258363e-03 1.052208244801e-05 5.153754238129e+03
    5.039840000000e+05-1.862645149231e-08 1.724875456855e+00-1.266598701477e-07
    9.369199707518e-01 1.678125000000e+02-2.846698313280e+00-8.143196339671e-09
   -2.450102056585e-10 1.000000000000e+00 2.143000000000e+03 0.000000000000e+00
    2.400000000000e+00 0.000000000000e+00 3.725290298462e-09 2.000000000000e+00
    4.986900000000e+05 4.000000000000e+00
24 21  2  5 19 59 44.0 2.741813659668e-06-4.547473508865e-13 0.000000000000e+00
    3.700000000000e+01 2.559375000000e+01 5.176287041704e-09-1.500733927912e+00
    1.268461346626e-06 1.089994038921e-02 9.750947356224e-06 5.153616168976e+03
    5.039840000000e+05 1.825392246246e-07 1.629576381072e+00-1.192092895508e-07
    9.350427601241e-01 1.747500000000e+02 7.272128175042e-01-8.187841056445e-09
   -2.239378993409e-10 1.000000000000e+00 2.143000000000e+03 0.000000000000e+00
    2.400000000000e+00 0.000000000000e+00 2.793967723846e-09 3.700000000000e+01
    5.009100000000e+05 4.000000000000e+00
25 21  2  5 19 59 44.0 7.454166188836e-05 7.730704965070e-12 0.000000000000e+00
    4.300000000000e+01 9.403125000000e+01 4.476615040414e-09 2.795486232662e+00
    4.708766937256e-06 9.780401480384e-03 7.266178727150e-06 5.153675678253e+03
    5.039840000000e+05-6.891787052155e-08 2.743418779455e+00-1.769512891769e-07
    9.624653848094e-01 2.369062500000e+02 9.373098691412e-01-7.966046103509e-09
   -2.142946405177e-12 1.000000000000e+00 2.143000000000e+03 0.000000000000e+00
    2.400000000000e+00 0.000000000000e+00 5.587935447693e-09 4.300000000000e+01
    5.009100000000e+05 4.000000000000e+00
 6 21  2  5 19 59 44.0-3.578141331673e-06 7.958078640513e-13 0.000000000000e+00
    2.100000000000e+01-8.965625000000e+01 3.894090775940e-09-1.484683095033e+00
   -4.587695002556e-06 2.297133207321e-03 8.968636393547e-06 5.153706382751e+03
    5.039840000000e+05 3.725290298462e-09-1.443921103464e+00 4.842877388000e-08
    9.824114916219e-01 2.195625000000e+02-1.091348902079e+00-7.858898783251e-09
    1.071473202588e-11 1.000000000000e+00 2.143000000000e+03 0.000000000000e+00
    2.400000000000e+00 0.000000000000e+00 3.725290298462e-09 2.100000000000e+01
    5.037000000000e+05 4.000000000000e+00
 6 21  2  5 21 59 44.0-3.572087734938e-06 7.958078640513e-13 0.000000000000e+00
    2.300000000000e+01-8.343750000000e+01 3.848731743697e-09-4.342721881969e-01
   -4.338100552559e-06 2.297035302036e-03 8.786097168922e-06 5.153707166672e+03
    5.111840000000e+05-8.195638656616e-08-1.443977200521e+00-5.587935447693e-09
    9.824114609007e-01 2.228125000000e+02-1.091604545551e+00-7.826397429439e-09
   -6.285976121851e-11 1.000000000000e+00 2.143000000000e+03 0.000000000000e+00
    2.400000000000e+00 0.000000000000e+00 3.725290298462e-09 2.300000000000e+01
    5.040000000000e+05 4.000000000000e+00
30 21  2  5 21 59 44.0-3.802813589573e-04-5.911715561524e-12 0.000000000000e+00
    3.000000000000e+00 4.096875000000e+01 5.070925510116e-09-1.467816961817e+00
    1.890584826469e-06 4.817643086426e-03 9.208917617798e-06 5.153748634338e+03
    5.111840000000e+05 7.264316082001e-08 1.724816214524e+00-4.656612873077e-08
    9.369185268516e-01 1.875625000000e+02-2.846153032509e+00-8.172483273875e-09
   -1.585780339831e-10 1.000000000000e+00 2.143000000000e+03 0.000000000000e+00
    2.400000000000e+00 0.000000000000e+00 3.725290298462e-09 3.000000000000e+00
    5.040000000000e+05 4.000000000000e+00
24 21  2  5 21 59 44.0 2.738554030657e-06-4.547473508865e-13 0.000000000000e+00
    3.800000000000e+01 3.021875000000e+01 5.230932175036e-09-4.505192832393e-01
    1.676380634308e-06 1.090038265102e-02 9.814277291298e-06 5.153616519928e+03
    5.111840000000e+05 6.705522537231e-08 1.629516993912e+00 1.005828380585e-07
    9.350398518430e-01 1.790000000000e+02 7.272193333414e-01-8.427851053825e-09
   -2.921550265724e-10 1.000000000000e+00 2.143000000000e+03 0.000000000000e+00
    2.400000000000e+00 0.000000000000e+00 2.793967723846e-09 3.800000000000e+01
    5.040000000000e+05 4.000000000000e+00
25 21  2  5 21 59 44.0 7.459707558155e-05 7.730704965070e-12 0.000000000000e+00
    7.100000000000e+01 1.027500000000e+02 4.548403744987e-09-2.437568152646e+00
    5.215406417847e-06 9.779721614905e-03 7.158145308495e-06 5.153676763535e+03
    5.111840000000e+05 1.769512891769e-07 2.743359980389e+00-1.080334186554e-07
    9.624656876334e-01 2.411562500000e+02 9.373580956986e-01-8.069264688692e-09
    1.803646557690e-10 1.000000000000e+00 2.143000000000e+03 0.000000000000e+00
    2.400000000000e+00 0.000000000000e+00 5.587935447693e-09 7.100000000000e+01
    5.040000000000e+05 4.000000000000e+00
 1 21  2  5 22  0  0.0 7.669627666473e-04-7.389644451905e-12 0.000000000000e+00
    2.800000000000e+01-7.521875000000e+01 3.956236221690e-09-7.865750341788e-01
   -3.980472683907e-06 1.034356607124e-02 7.648020982742e-06 5.153692609787e+03
    5.112000000000e+05 8.381903171539e-08-1.435717162743e+00 2.160668373108e-07
    9.829223235973e-01 2.427500000000e+02 8.198639779170e-01-7.972832100459e-09
   -1.353627812603e-10 1.000000000000e+00 2.143000000000e+03 0.000000000000e+00
    2.400000000000e+00 0.000000000000e+00 4.656612873077e-09 2.800000000000e+01
    5.040000000000e+05 4.000000000000e+00
